{
 "type": "FeatureCollection",
 "features": [
  {
   "type": "Feature",
   "properties": {},
   "geometry": {
    "type": "MultiPolygon",
    "coordinates": [
     [
      [
       [
        14.6395162,
        45.8958867
       ],
       [
        14.311032,
        45.3236434
       ],
       [
        13.1834106,
        45.5090533
       ],
       [
        13.5268749,
        44.2286955
       ],
       [
        17.3466668,
        41.5622331
       ],
       [
        18.7989248,
        40.4683135
       ],
       [
        18.6096572,
        39.505653
       ],
       [
        17.6635015,
        38.5515832
       ],
       [
        16.5848257,
        36.3542766
       ],
       [
        15.5908842,
        35.7056743
       ],
       [
        14.85,
        35.55
       ],
       [
        14.85,
        36.25
       ],
       [
        14.05,
        36.25
       ],
       [
        14.05,
        35.55
       ],
       [
        13.3,
        35.15
       ],
       [
        12.05,
        35.2
       ],
       [
        11.55,
        36.4
       ],
       [
        11.5,
        37.3
       ],
       [
        11.7874699,
        38.2877847
       ],
       [
        12.95,
        38.95
       ],
       [
        15.45,
        38.95
       ],
       [
        15.7347459,
        39.2365281
       ],
       [
        14.7070146,
        40.1628908
       ],
       [
        12.9624973,
        40.6366831
       ],
       [
        10.181544,
        42.2793081
       ],
       [
        9.68,
        42.55
       ],
       [
        9.68,
        43.62
       ],
       [
        8.740323,
        44.0981555
       ],
       [
        7.8892648,
        43.5593638
       ],
       [
        7.2614267,
        43.8944309
       ],
       [
        6.5413956,
        44.678439
       ],
       [
        6.7138112,
        45.4247652
       ],
       [
        6.696265,
        45.9945167
       ],
       [
        5.6353581,
        46.1694185
       ],
       [
        5.9347783,
        46.7611134
       ],
       [
        6.7331305,
        47.682715
       ],
       [
        7.2560462,
        47.7901703
       ],
       [
        9.0647909,
        48.0497549
       ],
       [
        10.0419365,
        47.8864125
       ],
       [
        11.3,
        47.98
       ],
       [
        12.4,
        48.1
       ],
       [
        13.6,
        48.75
       ],
       [
        14.6,
        49.1
       ],
       [
        16.3,
        49.1
       ],
       [
        17.1,
        48.7
       ],
       [
        17.4,
        48.0
       ],
       [
        17.05,
        47.3
       ],
       [
        16.85,
        46.95
       ],
       [
        16.4,
        46.6
       ],
       [
        15.4,
        46.5
       ],
       [
        14.7,
        46.4
       ],
       [
        14.6395162,
        45.8958867
       ]
      ]
     ],
     [
      [
       [
        7.6,
        38.5
       ],
       [
        10.15,
        38.5
       ],
       [
        10.15,
        41.0
       ],
       [
        9.62,
        41.32
       ],
       [
        8.05,
        41.32
       ],
       [
        7.6,
        40.6
       ],
       [
        7.6,
        38.5
       ]
      ]
     ]
    ]
   }
  }
 ]
}